ONEWEB-0094             
1 45450U 20020AC  25336.22451634  .00000007  00000+0 -16240-4 0  9992
2 45450  87.9135  45.0002 0001881 100.1363 259.9981 13.17651600280379
ONEWEB-0087             
1 45451U 20020AD  25336.26188242 -.00000396  00000+0 -11529-2 0  9994
2 45451  87.8879  60.2286 0001977 107.2009 252.9335 13.11417029276772
ONEWEB-0082             
1 45452U 20020AE  25336.48752080 -.00000369  00000+0 -10774-2 0  9997
2 45452  87.8880  60.2090 0001909 105.8613 254.2725 13.11415909276894
ONEWEB-0050             
1 45453U 20020AF  25336.42839962  .00004703  00000+0  49282-3 0  9998
2 45453  88.9232 260.0500 0002955  17.2989 342.8340 14.89425274311088
ONEWEB-0034             
1 45454U 20020AG  25336.27981671 -.00000395  00000+0 -11506-2 0  9999
2 45454  87.8872  60.2655 0001706 103.4561 256.6757 13.11418114276785
ONEWEB-0060             
1 45455U 20020AH  25336.47989586 -.00000128  00000+0 -39764-3 0  9996
2 45455  87.8859  60.2442 0002750 109.4939 250.6486 13.11413810276769
ONEWEB-0086             
1 45456U 20020AJ  25336.53501683  .00000481  00000+0  13223-2 0  9993
2 45456  87.8870  60.2115 0002345  93.4764 266.6632 13.11416992276830
ONEWEB-0088             
1 45457U 20020AK  25336.51295742 -.00000048  00000+0 -17191-3 0  9998
2 45457  87.8882  60.1702 0001641 107.8919 252.2388 13.11419313276766
